H1 CPF 01  gfz 2022 12 04 13  8382 terrasarx 
H2 0702601  6201 31698    2022 12 04 12 59 42 2022 12 09 00 00 42   120 1 1  0 0 0
H9
10 0 59920  35982.000000  0     387681.968   1089582.494   6780014.716
10 0 59920  36102.000000  0     856859.184    298646.996   6817731.731
10 0 59920  36222.000000  0    1297132.279   -505457.676   6735665.141
10 0 59920  36342.000000  0    1700716.220  -1308128.159   6535245.390
10 0 59920  36462.000000  0    2060717.767  -2094652.187   6219970.126
10 0 59920  36582.000000  0    2371254.105  -2850478.435   5795347.999
10 0 59920  36702.000000  0    2627550.818  -3561487.719   5268807.826
10 0 59920  36822.000000  0    2826016.477  -4214259.866   4649573.992
10 0 59920  36942.000000  0    2964293.679  -4796332.247   3948510.844
10 0 59920  37062.000000  0    3041285.176  -5296444.715   3177934.973
10 0 59920  37182.000000  0    3057153.796  -5704765.081   2351400.016
10 0 59920  37302.000000  0    3013295.556  -6013089.950   1483455.670
10 0 59920  37422.000000  0    2912286.531  -6215014.399    589387.064
10 0 59920  37542.000000  0    2757806.683  -6306068.199   -315060.170
10 0 59920  37662.000000  0    2554539.962  -6283815.353  -1213966.401
10 0 59920  37782.000000  0    2308053.061  -6147909.935  -2091528.173
10 0 59920  37902.000000  0    2024657.602  -5900111.020  -2932342.969
10 0 59920  38022.000000  0    1711257.303  -5544255.240  -3721686.592
10 0 59920  38142.000000  0    1375185.705  -5086185.689  -4445771.920
10 0 59920  38262.000000  0    1024041.126  -4533643.891  -5091986.838
10 0 59920  38382.000000  0     665520.046  -3896127.888  -5649107.592
10 0 59920  38502.000000  0     307253.138  -3184719.238  -6107485.030
10 0 59920  38622.000000  0     -43352.478  -2411883.133  -6459200.617
10 0 59920  38742.000000  0    -379261.685  -1591246.426  -6698191.725
10 0 59920  38862.000000  0    -693947.810   -737357.621  -6820345.972
10 0 59920  38982.000000  0    -981514.885    134568.174  -6823564.616
10 0 59920  39102.000000  0   -1236804.912   1008914.573  -6707793.431
10 0 59920  39222.000000  0   -1455488.190   1869936.280  -6475023.354
10 0 59920  39342.000000  0   -1634135.117   2702035.341  -6129259.835
10 0 59920  39462.000000  0   -1770269.784   3490038.749  -5676462.931
10 0 59920  39582.000000  0   -1862403.705   4219473.306  -5124454.500
10 0 59920  39702.000000  0   -1910049.400   4876833.149  -4482795.007
10 0 59920  39822.000000  0   -1913713.523   5449835.512  -3762628.118
10 0 59920  39942.000000  0   -1874868.499   5927657.678  -2976495.349
10 0 59920  40062.000000  0   -1795903.148   6301150.894  -2138124.448
10 0 59920  40182.000000  0   -1680054.022   6563027.320  -1262192.618
10 0 59920  40302.000000  0   -1531317.801   6708012.507   -364068.551
10 0 59920  40422.000000  0   -1354347.037   6732961.415    540460.313
10 0 59920  40542.000000  0   -1154331.113   6636934.270   1435473.896
10 0 59920  40662.000000  0    -936865.868   6421224.185   2305211.271
10 0 59920  40782.000000  0    -707814.734   6089338.320   3134356.440
10 0 59920  40902.000000  0    -473165.904   5646936.534   3908313.997
10 0 59920  41022.000000  0    -238889.430   5101729.198   4613470.802
10 0 59920  41142.000000  0     -10796.546   4463332.006   5237440.730
10 0 59920  41262.000000  0     205595.808   3743084.273   5769277.915
10 0 59920  41382.000000  0     405189.745   2953840.791   6199665.677
10 0 59920  41502.000000  0     583419.313   2109733.891   6521074.688
10 0 59920  41622.000000  0     736349.326   1225915.562   6727888.419
10 0 59920  41742.000000  0     860758.201    318282.225   6816495.372
10 0 59920  41862.000000  0     954203.459   -596810.650   6785347.590
10 0 59920  41982.000000  0    1015068.840  -1502842.467   6634987.342
10 0 59920  42102.000000  0    1042592.318  -2383425.488   6368038.590
10 0 59920  42222.000000  0    1036874.617  -3222601.865   5989164.729
10 0 59920  42342.000000  0     998867.258  -4005135.248   5504990.620
10 0 59920  42462.000000  0     930342.030  -4716789.322   4923991.467
10 0 59920  42582.000000  0     833842.178  -5344591.579   4256351.529
10 0 59920  42702.000000  0     712615.437  -5877079.143   3513791.332
10 0 59920  42822.000000  0     570530.041  -6304518.653   2709363.826
10 0 59920  42942.000000  0     411975.402  -6619094.120   1857224.082
10 0 59920  43062.000000  0     241749.768  -6815058.460    972377.385
10 0 59920  43182.000000  0      64938.027  -6888847.337     70409.344
10 0 59920  43302.000000  0    -113218.529  -6839148.086   -832798.975
10 0 59920  43422.000000  0    -287455.197  -6666920.792  -1721360.591
10 0 59920  43542.000000  0    -452616.691  -6375373.959  -2579669.450
10 0 59920  43662.000000  0    -603786.729  -5969896.928  -3392680.217
10 0 59920  43782.000000  0    -736411.433  -5457949.497  -4146175.756
10 0 59920  43902.000000  0    -846413.093  -4848911.260  -4827015.526
10 0 59920  44022.000000  0    -930291.670  -4153897.173  -5423359.604
10 0 59920  44142.000000  0    -985211.979  -3385544.284  -5924866.731
10 0 59920  44262.000000  0   -1009074.702  -2557774.191  -6322863.682
10 0 59920  44382.000000  0   -1000570.299  -1685536.137  -6610483.999
10 0 59920  44502.000000  0    -959215.157   -784536.730  -6782775.054
10 0 59920  44622.000000  0    -885369.739    129039.706  -6836774.562
10 0 59920  44742.000000  0    -780237.481   1038816.158  -6771554.950
10 0 59920  44862.000000  0    -645845.382   1928508.672  -6588237.246
10 0 59920  44982.000000  0    -485006.947   2782210.250  -6289974.030
10 0 59920  45102.000000  0    -301266.996   3584669.998  -5881902.557
10 0 59920  45222.000000  0     -98828.769   4321564.114  -5371065.524
10 0 59920  45342.000000  0     117534.899   4979752.237  -4766300.338
10 0 59920  45462.000000  0     342584.807   5547517.499  -4078097.922
10 0 59920  45582.000000  0     570731.844   6014784.187  -3318430.281
10 0 59920  45702.000000  0     796164.237   6373307.510  -2500549.605
10 0 59920  45822.000000  0    1012983.080   6616831.934  -1638761.408
10 0 59920  45942.000000  0    1215342.975   6741213.013   -748174.293
10 0 59920  46062.000000  0    1397594.526   6744498.619    155568.802
10 0 59920  46182.000000  0    1554424.828   6626965.856   1056572.292
10 0 59920  46302.000000  0    1680991.248   6391113.276   1938975.117
10 0 59920  46422.000000  0    1773046.431   6041609.650   2787237.946
10 0 59920  46542.000000  0    1827051.086   5585199.580   3586424.532
10 0 59920  46662.000000  0    1840271.178   5030567.825   4322472.098
10 0 59920  46782.000000  0    1810857.318   4388164.942   4982443.205
10 0 59920  46902.000000  0    1737904.284   3669998.577   5554754.459
10 0 59920  47022.000000  0    1621489.124   2889400.056   6029374.567
10 0 59920  47142.000000  0    1462688.911   2060770.881   6397995.998
10 0 59920  47262.000000  0    1263576.411   1199311.276   6654175.202
10 0 59920  47382.000000  0    1027194.428    320737.594   6793438.310
10 0 59920  47502.000000  0     757509.469   -559003.742   6813353.625
10 0 59920  47622.000000  0     459345.063  -1424024.897   6713573.190
10 0 59920  47742.000000  0     138295.341  -2258783.694   6495838.652
10 0 59920  47862.000000  0    -199379.836  -3048363.239   6163952.851
10 0 59920  47982.000000  0    -546875.351  -3778739.940   5723715.362
10 0 59920  48102.000000  0    -896974.657  -4437033.097   5182825.752
10 0 59920  48222.000000  0   -1242196.213  -5011736.401   4550757.773
10 0 59920  48342.000000  0   -1574951.267  -5492928.647   3838600.482
10 0 59920  48462.000000  0   -1887707.724  -5872455.297   3058866.016
10 0 59920  48582.000000  0   -2173157.057  -6144075.413   2225269.809
10 0 59920  48702.000000  0   -2424380.563  -6303571.920   1352487.064
10 0 59920  48822.000000  0   -2635009.534  -6348822.293    455888.843
10 0 59920  48942.000000  0   -2799375.984  -6279827.467   -448736.186
10 0 59920  49062.000000  0   -2912650.021  -6098697.843  -1345468.531
10 0 59920  49182.000000  0   -2970960.638  -5809596.525  -2218546.795
10 0 59920  49302.000000  0   -2971496.876  -5418641.562  -3052652.254
10 0 59920  49422.000000  0   -2912586.359  -4933769.538  -3833183.039
10 0 59920  49542.000000  0   -2793749.215  -4364564.711  -4546510.739
10 0 59920  49662.000000  0   -2615727.224  -3722060.122  -5180214.852
10 0 59920  49782.000000  0   -2380488.501  -3018515.726  -5723292.332
10 0 59920  49902.000000  0   -2091207.888  -2267178.415  -6166339.739
10 0 59920  50022.000000  0   -1752222.657  -1482028.899  -6501705.739
10 0 59920  50142.000000  0   -1368965.362   -677520.787  -6723611.472
10 0 59920  50262.000000  0    -947876.568    131682.766  -6828238.981
10 0 59920  50382.000000  0    -496297.890    930970.364  -6813789.234
10 0 59920  50502.000000  0     -22346.283   1706039.385  -6680509.584
10 0 59920  50622.000000  0     465227.012   2443144.972  -6430690.288
10 0 59920  50742.000000  0     957194.066   3129339.545  -6068631.645
10 0 59920  50862.000000  0    1444021.324   3752698.566  -5600577.207
10 0 59920  50982.000000  0    1916050.017   4302527.866  -5034616.058
10 0 59920  51102.000000  0    2363685.082   4769551.165  -4380555.066
10 0 59920  51222.000000  0    2777588.487   5146074.104  -3649759.169
10 0 59920  51342.000000  0    3148872.754   5426119.618  -2854962.463
10 0 59920  51462.000000  0    3469291.847   5605532.884  -2010052.176
10 0 59920  51582.000000  0    3731423.974   5682051.292  -1129827.682
10 0 59920  51702.000000  0    3928841.187   5655337.966   -229739.057
10 0 59920  51822.000000  0    4056261.328   5526976.616    674389.641
10 0 59920  51942.000000  0    4109678.536   5300427.038   1566646.212
10 0 59920  52062.000000  0    4086468.239   4980942.600   2431317.613
10 0 59920  52182.000000  0    3985465.646   4575454.383   3253175.934
10 0 59920  52302.000000  0    3807011.826   4092418.072   4017755.010
10 0 59920  52422.000000  0    3552970.286   3541633.541   4711607.907
99
